{
  "type": "FeatureCollection",
  "features": [
    {
      "type": "Feature",
      "properties": {
        "norad_id": 29954,
        "name": "FENGYUN 1C DEB",
        "group": "fengyun-1c-debris",
        "lat": -56.79726409888271,
        "lon": -176.17727550838052,
        "alt_km": 745.9917270648748,
        "timestamp": "2025-12-08T08:59:01.038380+00:00",
        "meta_object_name": "FENGYUN 1C DEB",
        "meta_object_id": "1999-025KC",
        "meta_epoch": "2025-12-07T16:48:03.958848",
        "meta_mean_motion": 14.34194426,
        "meta_eccentricity": 0.00742177,
        "meta_inclination": 100.1503,
        "meta_ra_of_asc_node": 18.9192,
        "meta_arg_of_pericenter": 283.5208,
        "meta_mean_anomaly": 75.771,
        "meta_ephemeris_type": 0,
        "meta_classification_type": "U",
        "meta_norad_cat_id": 29954,
        "meta_element_set_no": 999,
        "meta_rev_at_epoch": 98115,
        "meta_bstar": 0.0012756391,
        "meta_mean_motion_dot": 3.631e-05,
        "meta_mean_motion_ddot": 0,
        "tle_line1": "1 29954U 99025KC  25341.70004582  .00003631  00000+0  12756-2 0  9990",
        "tle_line2": "2 29954 100.1503  18.9192 0074217 283.5208  75.7710 14.34194426981159"
      },
      "geometry": {
        "type": "Point",
        "coordinates": [
          -176.17727550838052,
          -56.79726409888271
        ]
      }
    },
    {
      "type": "Feature",
      "properties": {
        "norad_id": 29955,
        "name": "FENGYUN 1C DEB",
        "group": "fengyun-1c-debris",
        "lat": -80.66167862658342,
        "lon": 159.16587821102976,
        "alt_km": 766.6578639239942,
        "timestamp": "2025-12-08T08:59:01.038391+00:00",
        "meta_object_name": "FENGYUN 1C DEB",
        "meta_object_id": "1999-025KD",
        "meta_epoch": "2025-12-07T17:24:41.216256",
        "meta_mean_motion": 14.38174879,
        "meta_eccentricity": 0.00072905,
        "meta_inclination": 99.274,
        "meta_ra_of_asc_node": 61.9971,
        "meta_arg_of_pericenter": 262.4586,
        "meta_mean_anomaly": 249.0335,
        "meta_ephemeris_type": 0,
        "meta_classification_type": "U",
        "meta_norad_cat_id": 29955,
        "meta_element_set_no": 999,
        "meta_rev_at_epoch": 97989,
        "meta_bstar": 0.002605071,
        "meta_mean_motion_dot": 7.868e-05,
        "meta_mean_motion_ddot": 0,
        "tle_line1": "1 29955U 99025KD  25341.72547704  .00007868  00000+0  26051-2 0  9990",
        "tle_line2": "2 29955  99.2740  61.9971 0007290 262.4586 249.0335 14.38174879979897"
      },
      "geometry": {
        "type": "Point",
        "coordinates": [
          159.16587821102976,
          -80.66167862658342
        ]
      }
    },
    {
      "type": "Feature",
      "properties": {
        "norad_id": 29956,
        "name": "FENGYUN 1C DEB",
        "group": "fengyun-1c-debris",
        "lat": 62.39028837725487,
        "lon": -151.43162668431995,
        "alt_km": 863.7769401272235,
        "timestamp": "2025-12-08T08:59:01.038402+00:00",
        "meta_object_name": "FENGYUN 1C DEB",
        "meta_object_id": "1999-025KE",
        "meta_epoch": "2025-12-07T22:31:58.971936",
        "meta_mean_motion": 14.06170063,
        "meta_eccentricity": 0.00539523,
        "meta_inclination": 98.7922,
        "meta_ra_of_asc_node": 10.933,
        "meta_arg_of_pericenter": 30.9715,
        "meta_mean_anomaly": 41.5705,
        "meta_ephemeris_type": 0,
        "meta_classification_type": "U",
        "meta_norad_cat_id": 29956,
        "meta_element_set_no": 999,
        "meta_rev_at_epoch": 96982,
        "meta_bstar": 8.3229981e-05,
        "meta_mean_motion_dot": 9.6e-07,
        "meta_mean_motion_ddot": 0,
        "tle_line1": "1 29956U 99025KE  25341.93887699  .00000096  00000+0  83230-4 0  9994",
        "tle_line2": "2 29956  98.7922  10.9330 0053952  30.9715  41.5705 14.06170063969829"
      },
      "geometry": {
        "type": "Point",
        "coordinates": [
          -151.43162668431995,
          62.39028837725487
        ]
      }
    },
    {
      "type": "Feature",
      "properties": {
        "norad_id": 29957,
        "name": "FENGYUN 1C DEB",
        "group": "fengyun-1c-debris",
        "lat": -5.332901245231709,
        "lon": -71.75887795243142,
        "alt_km": 699.1006592569147,
        "timestamp": "2025-12-08T08:59:01.038412+00:00",
        "meta_object_name": "FENGYUN 1C DEB",
        "meta_object_id": "1999-025KF",
        "meta_epoch": "2025-12-07T07:26:49.792992",
        "meta_mean_motion": 14.50806429,
        "meta_eccentricity": 0.003863,
        "meta_inclination": 98.9209,
        "meta_ra_of_asc_node": 107.9539,
        "meta_arg_of_pericenter": 193.6145,
        "meta_mean_anomaly": 197.5071,
        "meta_ephemeris_type": 0,
        "meta_classification_type": "U",
        "meta_norad_cat_id": 29957,
        "meta_element_set_no": 999,
        "meta_rev_at_epoch": 97413,
        "meta_bstar": 0.0080207422,
        "meta_mean_motion_dot": 0.00031996,
        "meta_mean_motion_ddot": 0,
        "tle_line1": "1 29957U 99025KF  25341.31029853  .00031996  00000+0  80207-2 0  9999",
        "tle_line2": "2 29957  98.9209 107.9539 0038630 193.6145 197.5071 14.50806429974137"
      },
      "geometry": {
        "type": "Point",
        "coordinates": [
          -71.75887795243142,
          -5.332901245231709
        ]
      }
    },
    {
      "type": "Feature",
      "properties": {
        "norad_id": 29958,
        "name": "FENGYUN 1C DEB",
        "group": "fengyun-1c-debris",
        "lat": -47.4840522674463,
        "lon": 6.447564120725935,
        "alt_km": 818.1855281367752,
        "timestamp": "2025-12-08T08:59:01.038423+00:00",
        "meta_object_name": "FENGYUN 1C DEB",
        "meta_object_id": "1999-025KG",
        "meta_epoch": "2025-12-07T23:01:20.867520",
        "meta_mean_motion": 14.14446884,
        "meta_eccentricity": 0.00545864,
        "meta_inclination": 98.6686,
        "meta_ra_of_asc_node": 356.4665,
        "meta_arg_of_pericenter": 347.0062,
        "meta_mean_anomaly": 12.9702,
        "meta_ephemeris_type": 0,
        "meta_classification_type": "U",
        "meta_norad_cat_id": 29958,
        "meta_element_set_no": 999,
        "meta_rev_at_epoch": 97383,
        "meta_bstar": 0.00052124913,
        "meta_mean_motion_dot": 9.7e-06,
        "meta_mean_motion_ddot": 0,
        "tle_line1": "1 29958U 99025KG  25341.95926930  .00000970  00000+0  52125-3 0  9999",
        "tle_line2": "2 29958  98.6686 356.4665 0054586 347.0062  12.9702 14.14446884973838"
      },
      "geometry": {
        "type": "Point",
        "coordinates": [
          6.447564120725935,
          -47.4840522674463
        ]
      }
    },
    {
      "type": "Feature",
      "properties": {
        "norad_id": 29959,
        "name": "FENGYUN 1C DEB",
        "group": "fengyun-1c-debris",
        "lat": 60.64589148045364,
        "lon": -2.8465170504815327,
        "alt_km": 862.5173870523477,
        "timestamp": "2025-12-08T08:59:01.038433+00:00",
        "meta_object_name": "FENGYUN 1C DEB",
        "meta_object_id": "1999-025KH",
        "meta_epoch": "2025-12-07T02:04:11.678592",
        "meta_mean_motion": 14.06011596,
        "meta_eccentricity": 0.00418776,
        "meta_inclination": 98.8088,
        "meta_ra_of_asc_node": 11.9051,
        "meta_arg_of_pericenter": 344.0217,
        "meta_mean_anomaly": 41.2979,
        "meta_ephemeris_type": 0,
        "meta_classification_type": "U",
        "meta_norad_cat_id": 29959,
        "meta_element_set_no": 999,
        "meta_rev_at_epoch": 96861,
        "meta_bstar": 0.00031947572,
        "meta_mean_motion_dot": 4.85e-06,
        "meta_mean_motion_ddot": 0,
        "tle_line1": "1 29959U 99025KH  25341.08624628  .00000485  00000+0  31948-3 0  9994",
        "tle_line2": "2 29959  98.8088  11.9051 0041877 344.0217  41.2979 14.06011596968617"
      },
      "geometry": {
        "type": "Point",
        "coordinates": [
          -2.8465170504815327,
          60.64589148045364
        ]
      }
    },
    {
      "type": "Feature",
      "properties": {
        "norad_id": 29960,
        "name": "FENGYUN 1C DEB",
        "group": "fengyun-1c-debris",
        "lat": -25.418773117572474,
        "lon": -27.783994221357094,
        "alt_km": 789.3734546379319,
        "timestamp": "2025-12-08T08:59:01.038443+00:00",
        "meta_object_name": "FENGYUN 1C DEB",
        "meta_object_id": "1999-025KJ",
        "meta_epoch": "2025-12-07T21:31:31.338336",
        "meta_mean_motion": 14.1638739,
        "meta_eccentricity": 0.0091127,
        "meta_inclination": 98.6138,
        "meta_ra_of_asc_node": 327.6231,
        "meta_arg_of_pericenter": 300.3102,
        "meta_mean_anomaly": 120.4401,
        "meta_ephemeris_type": 0,
        "meta_classification_type": "U",
        "meta_norad_cat_id": 29960,
        "meta_element_set_no": 999,
        "meta_rev_at_epoch": 97386,
        "meta_bstar": 0.00075785662,
        "meta_mean_motion_dot": 1.525e-05,
        "meta_mean_motion_ddot": 0,
        "tle_line1": "1 29960U 99025KJ  25341.89689049  .00001525  00000+0  75786-3 0  9997",
        "tle_line2": "2 29960  98.6138 327.6231 0091127 300.3102 120.4401 14.16387390973863"
      },
      "geometry": {
        "type": "Point",
        "coordinates": [
          -27.783994221357094,
          -25.418773117572474
        ]
      }
    }
  ]
}